ONEWEB-0142             
1 47288U 20100AG  25227.52120763  .00000034  00000+0  58791-4 0  9996
2 47288  87.8866  51.4172 0001474 100.5891 259.5404 13.12442694224579
ONEWEB-0143             
1 47289U 20100AH  25227.45456095 -.00000396  00000+0 -11368-2 0  9999
2 47289  87.8863  51.4280 0001768  88.5207 271.6124 13.12442700224548
ONEWEB-0144             
1 47290U 20100AJ  25227.50323247  .00000450  00000+0  12151-2 0  9999
2 47290  87.8854  51.3961 0001468  90.8993 269.2304 13.12443106224476
ONEWEB-0145             
1 47291U 20100AK  25227.47402082 -.00000258  00000+0 -75283-3 0  9995
2 47291  87.8864  51.4308 0001680  88.7459 271.3861 13.12444108224669
ONEWEB-0146             
1 47292U 20100AL  25227.47077719 -.00000486  00000+0 -13851-2 0  9996
2 47292  87.8863  51.4181 0002096  87.0441 273.0928 13.12443074224577
ONEWEB-0147             
1 47293U 20100AM  25227.51296365  .00000297  00000+0  79128-3 0  9990
2 47293  87.8861  51.3881 0001629  80.0741 280.0572 13.12440560224478
ONEWEB-0115             
1 48042U 21025A   25227.47503846  .00000024  00000+0  31946-4 0  9995
2 48042  87.8987  20.9411 0001834  94.2143 265.9195 13.13470563213469
ONEWEB-0152             
1 48043U 21025B   25227.48857391  .00000242  00000+0  62784-3 0  9999
2 48043  87.8986  20.9529 0001867  91.6489 268.4854 13.13469592213425
ONEWEB-0153             
1 48044U 21025C   25227.46656393 -.00000100  00000+0 -30775-3 0  9997
2 48044  87.8988  20.9559 0001746  96.0590 264.0738 13.13470885213418
ONEWEB-0154             
1 48045U 21025D   25227.46317490 -.00000142  00000+0 -42321-3 0  9996
2 48045  87.8985  20.9547 0001775  92.6119 267.5214 13.13470620213373
ONEWEB-0116             
1 48046U 21025E   25227.42594123  .00000327  00000+0  86039-3 0  9990
2 48046  87.8990  20.9433 0001902  91.8213 268.3134 13.13469182213519
ONEWEB-0150             
1 48047U 21025F   25227.47841200  .00000133  00000+0  32988-3 0  9996
2 48047  87.8988  20.9281 0001823 100.5953 259.5381 13.13471051213412
ONEWEB-0107             
1 48048U 21025G   25227.48010396  .00000213  00000+0  54723-3 0  9992
2 48048  87.8988  20.9260 0001483  97.7479 262.3819 13.13471197213398
ONEWEB-0101             
1 48049U 21025H   25227.44285880 -.00000138  00000+0 -41236-3 0  9994
2 48049  87.8988  20.9730 0001627  91.9192 268.2123 13.13468395213365
ONEWEB-0113             
1 48050U 21025J   25227.50545424  .00000223  00000+0  57237-3 0  9997
2 48050  87.8987  20.9061 0001922  94.0467 266.0882 13.13976342213465
ONEWEB-0112             
1 48051U 21025K   25227.48518899  .00000244  00000+0  63392-3 0  9993
2 48051  87.8988  20.9216 0001778  97.1393 262.9938 13.13470451213467
ONEWEB-0156             
1 48052U 21025L   25227.49364870  .00000422  00000+0  11200-2 0  9991
2 48052  87.8987  20.9321 0001690  98.5986 261.5335 13.13470826213440
