[{"OBJECT_NAME":"ONEWEB-0142","OBJECT_ID":"2020-100AG","EPOCH":"2025-08-15T12:30:32.339232","MEAN_MOTION":13.12442694,"ECCENTRICITY":0.0001474,"INCLINATION":87.8866,"RA_OF_ASC_NODE":51.4172,"ARG_OF_PERICENTER":100.5891,"MEAN_ANOMALY":259.5404,"EPHEMERIS_TYPE":0,"CLASSIFICATION_TYPE":"U","NORAD_CAT_ID":47288,"ELEMENT_SET_NO":999,"REV_AT_EPOCH":22457,"BSTAR":5.8791e-5,"MEAN_MOTION_DOT":3.4e-7,"MEAN_MOTION_DDOT":0},{"OBJECT_NAME":"ONEWEB-0143","OBJECT_ID":"2020-100AH","EPOCH":"2025-08-15T10:54:34.066080","MEAN_MOTION":13.124427,"ECCENTRICITY":0.0001768,"INCLINATION":87.8863,"RA_OF_ASC_NODE":51.428,"ARG_OF_PERICENTER":88.5207,"MEAN_ANOMALY":271.6124,"EPHEMERIS_TYPE":0,"CLASSIFICATION_TYPE":"U","NORAD_CAT_ID":47289,"ELEMENT_SET_NO":999,"REV_AT_EPOCH":22454,"BSTAR":-0.0011368,"MEAN_MOTION_DOT":-3.96e-6,"MEAN_MOTION_DDOT":0},{"OBJECT_NAME":"ONEWEB-0144","OBJECT_ID":"2020-100AJ","EPOCH":"2025-08-15T12:04:39.285408","MEAN_MOTION":13.12443106,"ECCENTRICITY":0.0001468,"INCLINATION":87.8854,"RA_OF_ASC_NODE":51.3961,"ARG_OF_PERICENTER":90.8993,"MEAN_ANOMALY":269.2304,"EPHEMERIS_TYPE":0,"CLASSIFICATION_TYPE":"U","NORAD_CAT_ID":47290,"ELEMENT_SET_NO":999,"REV_AT_EPOCH":22447,"BSTAR":0.0012151,"MEAN_MOTION_DOT":4.5e-6,"MEAN_MOTION_DDOT":0},{"OBJECT_NAME":"ONEWEB-0145","OBJECT_ID":"2020-100AK","EPOCH":"2025-08-15T11:22:35.398848","MEAN_MOTION":13.12444108,"ECCENTRICITY":0.000168,"INCLINATION":87.8864,"RA_OF_ASC_NODE":51.4308,"ARG_OF_PERICENTER":88.7459,"MEAN_ANOMALY":271.3861,"EPHEMERIS_TYPE":0,"CLASSIFICATION_TYPE":"U","NORAD_CAT_ID":47291,"ELEMENT_SET_NO":999,"REV_AT_EPOCH":22466,"BSTAR":-0.00075283,"MEAN_MOTION_DOT":-2.58e-6,"MEAN_MOTION_DDOT":0},{"OBJECT_NAME":"ONEWEB-0146","OBJECT_ID":"2020-100AL","EPOCH":"2025-08-15T11:17:55.149216","MEAN_MOTION":13.12443074,"ECCENTRICITY":0.0002096,"INCLINATION":87.8863,"RA_OF_ASC_NODE":51.4181,"ARG_OF_PERICENTER":87.0441,"MEAN_ANOMALY":273.0928,"EPHEMERIS_TYPE":0,"CLASSIFICATION_TYPE":"U","NORAD_CAT_ID":47292,"ELEMENT_SET_NO":999,"REV_AT_EPOCH":22457,"BSTAR":-0.0013851,"MEAN_MOTION_DOT":-4.86e-6,"MEAN_MOTION_DDOT":0},{"OBJECT_NAME":"ONEWEB-0147","OBJECT_ID":"2020-100AM","EPOCH":"2025-08-15T12:18:40.059360","MEAN_MOTION":13.1244056,"ECCENTRICITY":0.0001629,"INCLINATION":87.8861,"RA_OF_ASC_NODE":51.3881,"ARG_OF_PERICENTER":80.0741,"MEAN_ANOMALY":280.0572,"EPHEMERIS_TYPE":0,"CLASSIFICATION_TYPE":"U","NORAD_CAT_ID":47293,"ELEMENT_SET_NO":999,"REV_AT_EPOCH":22447,"BSTAR":0.00079128,"MEAN_MOTION_DOT":2.97e-6,"MEAN_MOTION_DDOT":0},{"OBJECT_NAME":"ONEWEB-0115","OBJECT_ID":"2021-025A","EPOCH":"2025-08-15T11:24:03.322944","MEAN_MOTION":13.13470563,"ECCENTRICITY":0.0001834,"INCLINATION":87.8987,"RA_OF_ASC_NODE":20.9411,"ARG_OF_PERICENTER":94.2143,"MEAN_ANOMALY":265.9195,"EPHEMERIS_TYPE":0,"CLASSIFICATION_TYPE":"U","NORAD_CAT_ID":48042,"ELEMENT_SET_NO":999,"REV_AT_EPOCH":21346,"BSTAR":3.1946e-5,"MEAN_MOTION_DOT":2.4e-7,"MEAN_MOTION_DDOT":0},{"OBJECT_NAME":"ONEWEB-0152","OBJECT_ID":"2021-025B","EPOCH":"2025-08-15T11:43:32.785824","MEAN_MOTION":13.13469592,"ECCENTRICITY":0.0001867,"INCLINATION":87.8986,"RA_OF_ASC_NODE":20.9529,"ARG_OF_PERICENTER":91.6489,"MEAN_ANOMALY":268.4854,"EPHEMERIS_TYPE":0,"CLASSIFICATION_TYPE":"U","NORAD_CAT_ID":48043,"ELEMENT_SET_NO":999,"REV_AT_EPOCH":21342,"BSTAR":0.00062784,"MEAN_MOTION_DOT":2.42e-6,"MEAN_MOTION_DDOT":0},{"OBJECT_NAME":"ONEWEB-0153","OBJECT_ID":"2021-025C","EPOCH":"2025-08-15T11:11:51.123552","MEAN_MOTION":13.13470885,"ECCENTRICITY":0.0001746,"INCLINATION":87.8988,"RA_OF_ASC_NODE":20.9559,"ARG_OF_PERICENTER":96.059,"MEAN_ANOMALY":264.0738,"EPHEMERIS_TYPE":0,"CLASSIFICATION_TYPE":"U","NORAD_CAT_ID":48044,"ELEMENT_SET_NO":999,"REV_AT_EPOCH":21341,"BSTAR":-0.00030775,"MEAN_MOTION_DOT":-1.0e-6,"MEAN_MOTION_DDOT":0},{"OBJECT_NAME":"ONEWEB-0154","OBJECT_ID":"2021-025D","EPOCH":"2025-08-15T11:06:58.311360","MEAN_MOTION":13.1347062,"ECCENTRICITY":0.0001775,"INCLINATION":87.8985,"RA_OF_ASC_NODE":20.9547,"ARG_OF_PERICENTER":92.6119,"MEAN_ANOMALY":267.5214,"EPHEMERIS_TYPE":0,"CLASSIFICATION_TYPE":"U","NORAD_CAT_ID":48045,"ELEMENT_SET_NO":999,"REV_AT_EPOCH":21337,"BSTAR":-0.00042321,"MEAN_MOTION_DOT":-1.42e-6,"MEAN_MOTION_DDOT":0},{"OBJECT_NAME":"ONEWEB-0116","OBJECT_ID":"2021-025E","EPOCH":"2025-08-15T10:13:21.322272","MEAN_MOTION":13.13469182,"ECCENTRICITY":0.0001902,"INCLINATION":87.899,"RA_OF_ASC_NODE":20.9433,"ARG_OF_PERICENTER":91.8213,"MEAN_ANOMALY":268.3134,"EPHEMERIS_TYPE":0,"CLASSIFICATION_TYPE":"U","NORAD_CAT_ID":48046,"ELEMENT_SET_NO":999,"REV_AT_EPOCH":21351,"BSTAR":0.00086039,"MEAN_MOTION_DOT":3.27e-6,"MEAN_MOTION_DDOT":0},{"OBJECT_NAME":"ONEWEB-0150","OBJECT_ID":"2021-025F","EPOCH":"2025-08-15T11:28:54.796800","MEAN_MOTION":13.13471051,"ECCENTRICITY":0.0001823,"INCLINATION":87.8988,"RA_OF_ASC_NODE":20.9281,"ARG_OF_PERICENTER":100.5953,"MEAN_ANOMALY":259.5381,"EPHEMERIS_TYPE":0,"CLASSIFICATION_TYPE":"U","NORAD_CAT_ID":48047,"ELEMENT_SET_NO":999,"REV_AT_EPOCH":21341,"BSTAR":0.00032988,"MEAN_MOTION_DOT":1.33e-6,"MEAN_MOTION_DDOT":0},{"OBJECT_NAME":"ONEWEB-0107","OBJECT_ID":"2021-025G","EPOCH":"2025-08-15T11:31:20.982144","MEAN_MOTION":13.13471197,"ECCENTRICITY":0.0001483,"INCLINATION":87.8988,"RA_OF_ASC_NODE":20.926,"ARG_OF_PERICENTER":97.7479,"MEAN_ANOMALY":262.3819,"EPHEMERIS_TYPE":0,"CLASSIFICATION_TYPE":"U","NORAD_CAT_ID":48048,"ELEMENT_SET_NO":999,"REV_AT_EPOCH":21339,"BSTAR":0.00054723,"MEAN_MOTION_DOT":2.13e-6,"MEAN_MOTION_DDOT":0},{"OBJECT_NAME":"ONEWEB-0101","OBJECT_ID":"2021-025H","EPOCH":"2025-08-15T10:37:43.000320","MEAN_MOTION":13.13468395,"ECCENTRICITY":0.0001627,"INCLINATION":87.8988,"RA_OF_ASC_NODE":20.973,"ARG_OF_PERICENTER":91.9192,"MEAN_ANOMALY":268.2123,"EPHEMERIS_TYPE":0,"CLASSIFICATION_TYPE":"U","NORAD_CAT_ID":48049,"ELEMENT_SET_NO":999,"REV_AT_EPOCH":21336,"BSTAR":-0.00041236,"MEAN_MOTION_DOT":-1.38e-6,"MEAN_MOTION_DDOT":0},{"OBJECT_NAME":"ONEWEB-0113","OBJECT_ID":"2021-025J","EPOCH":"2025-08-15T12:07:51.246336","MEAN_MOTION":13.13976342,"ECCENTRICITY":0.0001922,"INCLINATION":87.8987,"RA_OF_ASC_NODE":20.9061,"ARG_OF_PERICENTER":94.0467,"MEAN_ANOMALY":266.0882,"EPHEMERIS_TYPE":0,"CLASSIFICATION_TYPE":"U","NORAD_CAT_ID":48050,"ELEMENT_SET_NO":999,"REV_AT_EPOCH":21346,"BSTAR":0.00057237,"MEAN_MOTION_DOT":2.23e-6,"MEAN_MOTION_DDOT":0},{"OBJECT_NAME":"ONEWEB-0112","OBJECT_ID":"2021-025K","EPOCH":"2025-08-15T11:38:40.328736","MEAN_MOTION":13.13470451,"ECCENTRICITY":0.0001778,"INCLINATION":87.8988,"RA_OF_ASC_NODE":20.9216,"ARG_OF_PERICENTER":97.1393,"MEAN_ANOMALY":262.9938,"EPHEMERIS_TYPE":0,"CLASSIFICATION_TYPE":"U","NORAD_CAT_ID":48051,"ELEMENT_SET_NO":999,"REV_AT_EPOCH":21346,"BSTAR":0.00063392,"MEAN_MOTION_DOT":2.44e-6,"MEAN_MOTION_DDOT":0},{"OBJECT_NAME":"ONEWEB-0156","OBJECT_ID":"2021-025L","EPOCH":"2025-08-15T11:50:51.247680","MEAN_MOTION":13.13470826,"ECCENTRICITY":0.000169,"INCLINATION":87.8987,"RA_OF_ASC_NODE":20.9321,"ARG_OF_PERICENTER":98.5986,"MEAN_ANOMALY":261.5335,"EPHEMERIS_TYPE":0,"CLASSIFICATION_TYPE":"U","NORAD_CAT_ID":48052,"ELEMENT_SET_NO":999,"REV_AT_EPOCH":21344,"BSTAR":0.00112,"MEAN_MOTION_DOT":4.22e-6,"MEAN_MOTION_DDOT":0}]
